[
    {
        "Altitude(m)": 617719.717752992,
        "Argument of Periapsis(deg)": 0.0,
        "Eccentricity": 0.0,
        "Inclination(deg)": 60.0,
        "Latitude(deg)": -41.102496109465356,
        "Longitude(deg)": 95.09463438254934,
        "Mean Anomaly(deg)": -130.90909999999997,
        "RAAN(deg)": 345.0,
        "Satellite Name": "Test1 1532",
        "Satellite Number": 1532,
        "Semi-Major Axis(m)": 6980739.136638005,
        "Time(s)": 0
    },
    {
        "Altitude(m)": 617911.2535954514,
        "Argument of Periapsis(deg)": 0.00010418945913296404,
        "Eccentricity": 0.0,
        "Inclination(deg)": 60.0,
        "Latitude(deg)": -41.56568823332563,
        "Longitude(deg)": 95.59903960740506,
        "Mean Anomaly(deg)": -130.2889938545382,
        "RAAN(deg)": 344.99957995086027,
        "Satellite Name": "Test1 1532",
        "Satellite Number": 1532,
        "Semi-Major Axis(m)": 6980739.136638005,
        "Time(s)": 10
    }
]